1 25994U 99068A   02001.12959021  .00003180  00000-0  71496-3 0  4248
2 25994  98.1543  78.7785 0001082  78.6044 281.5312 14.57149260108452
